NUSAT-49 (KLARA DAN VO*)
1 60500U 24149AJ  26068.79810190  .00012912  00000+0  43568-3 0  9991
2 60500  97.3807 150.7380 0001132 286.7761  73.3356 15.30828857 86935
STARLINK-36089          
1 66947U 25286Y   26068.04475590  .00021521  00000+0  73641-3 0  9995
2 66947  53.1601   1.7547 0001212  92.3094 267.8046 15.30209605 15311
